[{"OBJECT_NAME":"STARLINK-5750","OBJECT_ID":"2023-020AB","EPOCH":"2026-03-09T22:00:01.999584","MEAN_MOTION":15.1157446,"ECCENTRICITY":0.00010799,"INCLINATION":42.9996,"RA_OF_ASC_NODE":2.8154,"ARG_OF_PERICENTER":239.6654,"MEAN_ANOMALY":3.4658,"EPHEMERIS_TYPE":0,"CLASSIFICATION_TYPE":"U","NORAD_CAT_ID":55594,"ELEMENT_SET_NO":999,"REV_AT_EPOCH":577,"BSTAR":0.070030439,"MEAN_MOTION_DOT":0.01312742,"MEAN_MOTION_DDOT":0},{"OBJECT_NAME":"UMBRA-09","OBJECT_ID":"2024-149CB","EPOCH":"2026-03-09T19:52:12.515232","MEAN_MOTION":15.14785586,"ECCENTRICITY":0.0001111,"INCLINATION":97.6984,"RA_OF_ASC_NODE":154.5768,"ARG_OF_PERICENTER":266.3706,"MEAN_ANOMALY":93.7398,"EPHEMERIS_TYPE":0,"CLASSIFICATION_TYPE":"U","NORAD_CAT_ID":60541,"ELEMENT_SET_NO":999,"REV_AT_EPOCH":8566,"BSTAR":0.0012497074,"MEAN_MOTION_DOT":0.00023181,"MEAN_MOTION_DDOT":0}]
